{
  "type": "FeatureCollection",
  "name": "public_closures_FNDC",
  "features": [
    {
      "type": "Feature",
      "properties": {
        "road_id": "RUNARUNA ROAD",
        "s_datetime": "2026-03-26T20:16:58",
        "e_datetime": null,
        "type": "Unplanned",
        "cause": "Landslide",
        "detour": false,
        "c_description": "Overslip blocking the road",
        "road_status": "Road Closed",
        "notes": null,
        "added_on": "2026-03-26T00:00:00",
        "easting": 1633388.3167,
        "northing": 6088789.138,
        "info_source": "Public",
        "info_updated": "2026-03-26T20:16:58",
        "event_name": "Rain Event March 2026",
        "detour_details": null
      },
      "geometry": {
        "type": "Point",
        "coordinates": [
          173.36743448928794,
          -35.3436076648448
        ]
      },
      "id": 397
    },
    {
      "type": "Feature",
      "properties": {
        "road_id": "WEKAWEKA ROAD",
        "s_datetime": "2026-03-27T08:53:41",
        "e_datetime": null,
        "type": "Unplanned",
        "cause": "Overslip",
        "detour": false,
        "c_description": "overslip, large rocks / rockslide.",
        "road_status": "Road Closed",
        "notes": "large overslip",
        "added_on": "2026-03-27T00:00:00",
        "easting": 1650660.4733,
        "northing": 6063234.1799,
        "info_source": "Public",
        "info_updated": "2026-03-27T14:00:00",
        "event_name": "Rain Event March 2026",
        "detour_details": null
      },
      "geometry": {
        "type": "Point",
        "coordinates": [
          173.55909780980193,
          -35.573292377089054
        ]
      },
      "id": 408
    }
  ]
}